{
  "type": "FeatureCollection",
  "features": [
    {
      "type": "Feature",
      "properties": {
        "norad_id": 36585,
        "name": "GPS BIIF-1  (PRN 25)",
        "group": "gnss",
        "lat": -24.68116948069767,
        "lon": 54.91928032817108,
        "alt_km": 20462.894207521076,
        "timestamp": "2025-12-24T05:51:19.851112+00:00",
        "meta_object_name": "GPS BIIF-1  (PRN 25)",
        "meta_object_id": "2010-022A",
        "meta_epoch": "2025-12-23T05:44:03.055200",
        "meta_mean_motion": 2.00553739,
        "meta_eccentricity": 0.01265225,
        "meta_inclination": 54.2985,
        "meta_ra_of_asc_node": 215.6505,
        "meta_arg_of_pericenter": 65.2085,
        "meta_mean_anomaly": 139.2805,
        "meta_ephemeris_type": 0,
        "meta_classification_type": "U",
        "meta_norad_cat_id": 36585,
        "meta_element_set_no": 999,
        "meta_rev_at_epoch": 11406,
        "meta_bstar": 0,
        "meta_mean_motion_dot": 7.2e-07,
        "meta_mean_motion_ddot": 0,
        "tle_line1": "1 36585U 10022A   25357.23892425  .00000072  00000+0  00000+0 0  9996",
        "tle_line2": "2 36585  54.2985 215.6505 0126522  65.2085 139.2805  2.00553739114064"
      },
      "geometry": {
        "type": "Point",
        "coordinates": [
          54.91928032817108,
          -24.68116948069767
        ]
      }
    },
    {
      "type": "Feature",
      "properties": {
        "norad_id": 36828,
        "name": "BEIDOU-2 IGSO-1 (C06)",
        "group": "gnss",
        "lat": 42.39088966113398,
        "lon": -56.566049106271294,
        "alt_km": 35783.31364242388,
        "timestamp": "2025-12-24T05:51:19.851124+00:00",
        "meta_object_name": "BEIDOU-2 IGSO-1 (C06)",
        "meta_object_id": "2010-036A",
        "meta_epoch": "2025-12-20T21:47:26.739168",
        "meta_mean_motion": 1.00282395,
        "meta_eccentricity": 0.0051798,
        "meta_inclination": 54.2882,
        "meta_ra_of_asc_node": 164.5739,
        "meta_arg_of_pericenter": 215.2932,
        "meta_mean_anomaly": 144.6604,
        "meta_ephemeris_type": 0,
        "meta_classification_type": "U",
        "meta_norad_cat_id": 36828,
        "meta_element_set_no": 999,
        "meta_rev_at_epoch": 5631,
        "meta_bstar": 0,
        "meta_mean_motion_dot": -5.5e-07,
        "meta_mean_motion_ddot": 0,
        "tle_line1": "1 36828U 10036A   25354.90794837 -.00000055  00000+0  00000+0 0  9992",
        "tle_line2": "2 36828  54.2882 164.5739 0051798 215.2932 144.6604  1.00282395 56317"
      },
      "geometry": {
        "type": "Point",
        "coordinates": [
          -56.566049106271294,
          42.39088966113398
        ]
      }
    },
    {
      "type": "Feature",
      "properties": {
        "norad_id": 37210,
        "name": "BEIDOU-2 G4 (C04)",
        "group": "gnss",
        "lat": -3.2238246783110247,
        "lon": -18.944843620653916,
        "alt_km": 35776.842258059434,
        "timestamp": "2025-12-24T05:51:19.851137+00:00",
        "meta_object_name": "BEIDOU-2 G4 (C04)",
        "meta_object_id": "2010-057A",
        "meta_epoch": "2025-12-23T20:44:30.710976",
        "meta_mean_motion": 1.00271714,
        "meta_eccentricity": 0.00104108,
        "meta_inclination": 3.2104,
        "meta_ra_of_asc_node": 69.8962,
        "meta_arg_of_pericenter": 193.6802,
        "meta_mean_anomaly": 300.2845,
        "meta_ephemeris_type": 0,
        "meta_classification_type": "U",
        "meta_norad_cat_id": 37210,
        "meta_element_set_no": 999,
        "meta_rev_at_epoch": 5553,
        "meta_bstar": 0,
        "meta_mean_motion_dot": -9.2e-07,
        "meta_mean_motion_ddot": 0,
        "tle_line1": "1 37210U 10057A   25357.86424434 -.00000092  00000+0  00000+0 0  9993",
        "tle_line2": "2 37210   3.2104  69.8962 0010410 193.6802 300.2845  1.00271714 55533"
      },
      "geometry": {
        "type": "Point",
        "coordinates": [
          -18.944843620653916,
          -3.2238246783110247
        ]
      }
    },
    {
      "type": "Feature",
      "properties": {
        "norad_id": 37256,
        "name": "BEIDOU-2 IGSO-2 (C07)",
        "group": "gnss",
        "lat": 11.087618695286425,
        "lon": -75.7929185669815,
        "alt_km": 35972.92956691148,
        "timestamp": "2025-12-24T05:51:19.851149+00:00",
        "meta_object_name": "BEIDOU-2 IGSO-2 (C07)",
        "meta_object_id": "2010-068A",
        "meta_epoch": "2025-12-23T17:03:51.690816",
        "meta_mean_motion": 1.00283101,
        "meta_eccentricity": 0.00485637,
        "meta_inclination": 47.8659,
        "meta_ra_of_asc_node": 274.0149,
        "meta_arg_of_pericenter": 216.3394,
        "meta_mean_anomaly": 326.1369,
        "meta_ephemeris_type": 0,
        "meta_classification_type": "U",
        "meta_norad_cat_id": 37256,
        "meta_element_set_no": 999,
        "meta_rev_at_epoch": 5503,
        "meta_bstar": 0,
        "meta_mean_motion_dot": -1.88e-06,
        "meta_mean_motion_ddot": 0,
        "tle_line1": "1 37256U 10068A   25357.71101494 -.00000188  00000+0  00000+0 0  9993",
        "tle_line2": "2 37256  47.8659 274.0149 0048563 216.3394 326.1369  1.00283101 55034"
      },
      "geometry": {
        "type": "Point",
        "coordinates": [
          -75.7929185669815,
          11.087618695286425
        ]
      }
    },
    {
      "type": "Feature",
      "properties": {
        "norad_id": 37384,
        "name": "BEIDOU-2 IGSO-3 (C08)",
        "group": "gnss",
        "lat": -54.23076809351569,
        "lon": -90.99529508437267,
        "alt_km": 35715.94421882038,
        "timestamp": "2025-12-24T05:51:19.851161+00:00",
        "meta_object_name": "BEIDOU-2 IGSO-3 (C08)",
        "meta_object_id": "2011-013A",
        "meta_epoch": "2025-12-23T13:38:13.451136",
        "meta_mean_motion": 1.00268394,
        "meta_eccentricity": 0.00353473,
        "meta_inclination": 62.1571,
        "meta_ra_of_asc_node": 41.8137,
        "meta_arg_of_pericenter": 187.6149,
        "meta_mean_anomaly": 174.7745,
        "meta_ephemeris_type": 0,
        "meta_classification_type": "U",
        "meta_norad_cat_id": 37384,
        "meta_element_set_no": 999,
        "meta_rev_at_epoch": 5390,
        "meta_bstar": 0,
        "meta_mean_motion_dot": -1.6e-06,
        "meta_mean_motion_ddot": 0,
        "tle_line1": "1 37384U 11013A   25357.56821124 -.00000160  00000+0  00000+0 0  9998",
        "tle_line2": "2 37384  62.1571  41.8137 0035347 187.6149 174.7745  1.00268394 53906"
      },
      "geometry": {
        "type": "Point",
        "coordinates": [
          -90.99529508437267,
          -54.23076809351569
        ]
      }
    },
    {
      "type": "Feature",
      "properties": {
        "norad_id": 37605,
        "name": "GSAT-8 (GAGAN/PRN 127)",
        "group": "gnss",
        "lat": 0.7781875230009229,
        "lon": -124.12948247240904,
        "alt_km": 35754.83227471371,
        "timestamp": "2025-12-24T05:51:19.851173+00:00",
        "meta_object_name": "GSAT-8 (GAGAN/PRN 127)",
        "meta_object_id": "2011-022A",
        "meta_epoch": "2025-12-23T21:57:16.242912",
        "meta_mean_motion": 1.00271302,
        "meta_eccentricity": 0.00089337,
        "meta_inclination": 1.6768,
        "meta_ra_of_asc_node": 84.078,
        "meta_arg_of_pericenter": 186.0621,
        "meta_mean_anomaly": 206.9433,
        "meta_ephemeris_type": 0,
        "meta_classification_type": "U",
        "meta_norad_cat_id": 37605,
        "meta_element_set_no": 999,
        "meta_rev_at_epoch": 5146,
        "meta_bstar": 0,
        "meta_mean_motion_dot": 1.05e-06,
        "meta_mean_motion_ddot": 0,
        "tle_line1": "1 37605U 11022A   25357.91477133  .00000105  00000+0  00000+0 0  9998",
        "tle_line2": "2 37605   1.6768  84.0780 0008933 186.0621 206.9433  1.00271302 51464"
      },
      "geometry": {
        "type": "Point",
        "coordinates": [
          -124.12948247240904,
          0.7781875230009229
        ]
      }
    },
    {
      "type": "Feature",
      "properties": {
        "norad_id": 37763,
        "name": "BEIDOU-2 IGSO-4 (C09)",
        "group": "gnss",
        "lat": 51.186148493794086,
        "lon": -75.08078413456786,
        "alt_km": 36115.98565353499,
        "timestamp": "2025-12-24T05:51:19.851185+00:00",
        "meta_object_name": "BEIDOU-2 IGSO-4 (C09)",
        "meta_object_id": "2011-038A",
        "meta_epoch": "2025-12-21T10:06:26.864064",
        "meta_mean_motion": 1.00280083,
        "meta_eccentricity": 0.01491557,
        "meta_inclination": 54.5854,
        "meta_ra_of_asc_node": 167.2693,
        "meta_arg_of_pericenter": 230.0944,
        "meta_mean_anomaly": 299.1265,
        "meta_ephemeris_type": 0,
        "meta_classification_type": "U",
        "meta_norad_cat_id": 37763,
        "meta_element_set_no": 999,
        "meta_rev_at_epoch": 5286,
        "meta_bstar": 0,
        "meta_mean_motion_dot": 5.9e-07,
        "meta_mean_motion_ddot": 0,
        "tle_line1": "1 37763U 11038A   25355.42114426  .00000059  00000+0  00000+0 0  9995",
        "tle_line2": "2 37763  54.5854 167.2693 0149155 230.0944 299.1265  1.00280083 52867"
      },
      "geometry": {
        "type": "Point",
        "coordinates": [
          -75.08078413456786,
          51.186148493794086
        ]
      }
    }
  ]
}